start=new Date('2023-02-21T00:00:00.000Z').valueOf();
sats=[{"MEAN_ANOMALY":"275.6289","OBJECT_ID":"2022-136Q","BSTAR":"-0.00003391300000","OBJECT_NAME":"STARLINK-5187","MEAN_MOTION":"15.08858727","REF_FRAME":"TEME","FILE":"3817258","SEMIMAJOR_AXIS":"6917.823","MEAN_MOTION_DDOT":"0.0000000000000","CLASSIFICATION_TYPE":"U","APOAPSIS":"540.457","PERIOD":"95.436","MEAN_MOTION_DOT":"-0.00000828","COUNTRY_CODE":"US","SITE":"AFETR","REV_AT_EPOCH":"1934","EPHEMERIS_TYPE":"0","ELEMENT_SET_NO":"999","ECCENTRICITY":"0.00011110","EPOCH":"2023-02-20T23:21:07.805664","GP_ID":"226192591","OBJECT_TYPE":"PAYLOAD","NORAD_CAT_ID":"54065","MEAN_ELEMENT_THEORY":"SGP4","RCS_SIZE":"LARGE","INCLINATION":"53.2164","PERIAPSIS":"538.920","TIME_SYSTEM":"UTC","CENTER_NAME":"EARTH","LAUNCH_DATE":"2022-10-20","TLE_LINE1":"1 54065U 22136Q   23051.97300701 -.00000828  00000-0 -33913-4 0  9995","ARG_OF_PERICENTER":"84.4830","DECAY_DATE":null,"RA_OF_ASC_NODE":"299.1538","TLE_LINE2":"2 54065  53.2164 299.1538 0001111  84.4830 275.6289 15.08858727 19348"},{"COUNTRY_CODE":"US","SITE":"AFETR","MEAN_MOTION_DOT":"-0.00000998","PERIOD":"95.437","APOAPSIS":"540.698","SEMIMAJOR_AXIS":"6917.859","CLASSIFICATION_TYPE":"U","MEAN_MOTION_DDOT":"0.0000000000000","REF_FRAME":"TEME","FILE":"3817258","MEAN_MOTION":"15.08847113","OBJECT_NAME":"STARLINK-5151","BSTAR":"-0.00004463800000","OBJECT_ID":"2022-136R","MEAN_ANOMALY":"267.6269","TLE_LINE2":"2 54066  53.2184 299.1777 0001409  92.4884 267.6269 15.08847113 19340","RA_OF_ASC_NODE":"299.1777","DECAY_DATE":null,"ARG_OF_PERICENTER":"92.4884","TLE_LINE1":"1 54066U 22136R   23051.97669490 -.00000998  00000-0 -44638-4 0  9993","TIME_SYSTEM":"UTC","CENTER_NAME":"EARTH","LAUNCH_DATE":"2022-10-20","RCS_SIZE":"LARGE","PERIAPSIS":"538.749","INCLINATION":"53.2184","NORAD_CAT_ID":"54066","MEAN_ELEMENT_THEORY":"SGP4","OBJECT_TYPE":"PAYLOAD","GP_ID":"226193086","ECCENTRICITY":"0.00014090","EPOCH":"2023-02-20T23:26:26.439360","EPHEMERIS_TYPE":"0","ELEMENT_SET_NO":"999","REV_AT_EPOCH":"1934"},{"CENTER_NAME":"EARTH","LAUNCH_DATE":"2022-10-20","TIME_SYSTEM":"UTC","TLE_LINE1":"1 54067U 22136S   23050.97204528  .00000324  00000-0  38459-4 0  9995","PERIAPSIS":"539.083","INCLINATION":"53.2180","RCS_SIZE":"LARGE","RA_OF_ASC_NODE":"303.5671","TLE_LINE2":"2 54067  53.2180 303.5671 0000982  77.0800 283.0301 15.08834393 18717","ARG_OF_PERICENTER":"77.0800","DECAY_DATE":null,"EPOCH":"2023-02-19T23:19:44.712192","ECCENTRICITY":"0.00009820","REV_AT_EPOCH":"1871","ELEMENT_SET_NO":"999","EPHEMERIS_TYPE":"0","NORAD_CAT_ID":"54067","MEAN_ELEMENT_THEORY":"SGP4","OBJECT_TYPE":"PAYLOAD","GP_ID":"226159344","MEAN_MOTION_DDOT":"0.0000000000000","CLASSIFICATION_TYPE":"U","SEMIMAJOR_AXIS":"6917.898","APOAPSIS":"540.442","PERIOD":"95.438","MEAN_MOTION_DOT":"0.00000324","COUNTRY_CODE":"US","SITE":"AFETR","OBJECT_NAME":"STARLINK-5174","MEAN_ANOMALY":"283.0301","OBJECT_ID":"2022-136S","BSTAR":"0.00003845900000","FILE":"3815761","REF_FRAME":"TEME","MEAN_MOTION":"15.08834393"},{"ARG_OF_PERICENTER":"85.0589","DECAY_DATE":null,"RA_OF_ASC_NODE":"299.4253","TLE_LINE2":"2 54068  53.2173 299.4253 0000977  85.0589 275.0515 15.08856039 19334","RCS_SIZE":"LARGE","INCLINATION":"53.2173","PERIAPSIS":"539.020","TIME_SYSTEM":"UTC","LAUNCH_DATE":"2022-10-20","CENTER_NAME":"EARTH","TLE_LINE1":"1 54068U 22136T   23051.90308055  .00010881  00000-0  70040-3 0  9990","GP_ID":"226193124","OBJECT_TYPE":"PAYLOAD","NORAD_CAT_ID":"54068","MEAN_ELEMENT_THEORY":"SGP4","REV_AT_EPOCH":"1933","EPHEMERIS_TYPE":"0","ELEMENT_SET_NO":"999","ECCENTRICITY":"0.00009770","EPOCH":"2023-02-20T21:40:26.159520","PERIOD":"95.437","MEAN_MOTION_DOT":"0.00010881","SITE":"AFETR","COUNTRY_CODE":"US","SEMIMAJOR_AXIS":"6917.831","CLASSIFICATION_TYPE":"U","MEAN_MOTION_DDOT":"0.0000000000000","APOAPSIS":"540.372","MEAN_MOTION":"15.08856039","REF_FRAME":"TEME","FILE":"3817260","MEAN_ANOMALY":"275.0515","OBJECT_ID":"2022-136T","BSTAR":"0.00070040000000","OBJECT_NAME":"STARLINK-5222"},{"REV_AT_EPOCH":"1878","ELEMENT_SET_NO":"999","EPHEMERIS_TYPE":"0","EPOCH":"2023-02-20T10:11:30.848640","ECCENTRICITY":"0.00010740","OBJECT_TYPE":"PAYLOAD","GP_ID":"226160846","MEAN_ELEMENT_THEORY":"SGP4","NORAD_CAT_ID":"54069","INCLINATION":"53.2167","PERIAPSIS":"538.995","RCS_SIZE":"LARGE","LAUNCH_DATE":"2022-10-20","CENTER_NAME":"EARTH","TIME_SYSTEM":"UTC","TLE_LINE1":"1 54069U 22136U   23051.42466260  .00005200  00000-0  34454-3 0  9999","ARG_OF_PERICENTER":"84.6132","DECAY_DATE":null,"RA_OF_ASC_NODE":"301.4175","TLE_LINE2":"2 54069  53.2167 301.4175 0001074  84.6132 275.4982 15.08842491 18780","OBJECT_ID":"2022-136U","MEAN_ANOMALY":"275.4982","BSTAR":"0.00034454000000","OBJECT_NAME":"STARLINK-5223","MEAN_MOTION":"15.08842491","FILE":"3815761","REF_FRAME":"TEME","CLASSIFICATION_TYPE":"U","MEAN_MOTION_DDOT":"0.0000000000000","SEMIMAJOR_AXIS":"6917.873","APOAPSIS":"540.481","PERIOD":"95.437","MEAN_MOTION_DOT":"0.00005200","SITE":"AFETR","COUNTRY_CODE":"US"},{"ARG_OF_PERICENTER":"83.3437","DECAY_DATE":null,"RA_OF_ASC_NODE":"299.0907","TLE_LINE2":"2 54070  53.2172 299.0907 0001290  83.3437 276.7702 15.08857954 19344","RCS_SIZE":"LARGE","PERIAPSIS":"538.798","INCLINATION":"53.2172","TIME_SYSTEM":"UTC","LAUNCH_DATE":"2022-10-20","CENTER_NAME":"EARTH","TLE_LINE1":"1 54070U 22136V   23051.96290859 -.00000526  00000-0 -14962-4 0  9990","GP_ID":"226193117","OBJECT_TYPE":"PAYLOAD","NORAD_CAT_ID":"54070","MEAN_ELEMENT_THEORY":"SGP4","REV_AT_EPOCH":"1934","EPHEMERIS_TYPE":"0","ELEMENT_SET_NO":"999","ECCENTRICITY":"0.00012900","EPOCH":"2023-02-20T23:06:35.302176","PERIOD":"95.436","MEAN_MOTION_DOT":"-0.00000526","COUNTRY_CODE":"US","SITE":"AFETR","SEMIMAJOR_AXIS":"6917.826","MEAN_MOTION_DDOT":"0.0000000000000","CLASSIFICATION_TYPE":"U","APOAPSIS":"540.583","MEAN_MOTION":"15.08857954","REF_FRAME":"TEME","FILE":"3817260","OBJECT_ID":"2022-136V","MEAN_ANOMALY":"276.7702","BSTAR":"-0.00001496200000","OBJECT_NAME":"STARLINK-5181"},{"OBJECT_NAME":"STARLINK-5168","BSTAR":"0.00053631000000","MEAN_ANOMALY":"259.2409","OBJECT_ID":"2022-136W","FILE":"3817260","REF_FRAME":"TEME","MEAN_MOTION":"15.08851457","APOAPSIS":"540.542","MEAN_MOTION_DDOT":"0.0000000000000","CLASSIFICATION_TYPE":"U","SEMIMAJOR_AXIS":"6917.845","COUNTRY_CODE":"US","SITE":"AFETR","PERIOD":"95.437","MEAN_MOTION_DOT":"0.00008260","EPOCH":"2023-02-20T22:59:54.118464","ECCENTRICITY":"0.00012020","ELEMENT_SET_NO":"999","EPHEMERIS_TYPE":"0","REV_AT_EPOCH":"1934","MEAN_ELEMENT_THEORY":"SGP4","NORAD_CAT_ID":"54071","OBJECT_TYPE":"PAYLOAD","GP_ID":"226193129","TLE_LINE1":"1 54071U 22136W   23051.95826526  .00008260  00000-0  53631-3 0  9992","CENTER_NAME":"EARTH","LAUNCH_DATE":"2022-10-20","TIME_SYSTEM":"UTC","INCLINATION":"53.2184","PERIAPSIS":"538.879","RCS_SIZE":"LARGE","TLE_LINE2":"2 54071  53.2184 299.0608 0001202 100.8719 259.2409 15.08851457 19349","RA_OF_ASC_NODE":"299.0608","DECAY_DATE":null,"ARG_OF_PERICENTER":"100.8719"},{"ARG_OF_PERICENTER":"80.2932","DECAY_DATE":null,"RA_OF_ASC_NODE":"299.0892","TLE_LINE2":"2 54072  53.2151 299.0892 0001231  80.2932 279.8199 15.08849047 19345","RCS_SIZE":"LARGE","PERIAPSIS":"538.866","INCLINATION":"53.2151","TIME_SYSTEM":"UTC","LAUNCH_DATE":"2022-10-20","CENTER_NAME":"EARTH","TLE_LINE1":"1 54072U 22136X   23051.96195246  .00005265  00000-0  34855-3 0  9991","GP_ID":"226193307","OBJECT_TYPE":"PAYLOAD","NORAD_CAT_ID":"54072","MEAN_ELEMENT_THEORY":"SGP4","REV_AT_EPOCH":"1934","EPHEMERIS_TYPE":"0","ELEMENT_SET_NO":"999","ECCENTRICITY":"0.00012310","EPOCH":"2023-02-20T23:05:12.692544","MEAN_MOTION_DOT":"0.00005265","PERIOD":"95.437","COUNTRY_CODE":"US","SITE":"AFETR","SEMIMAJOR_AXIS":"6917.853","MEAN_MOTION_DDOT":"0.0000000000000","CLASSIFICATION_TYPE":"U","APOAPSIS":"540.569","MEAN_MOTION":"15.08849047","REF_FRAME":"TEME","FILE":"3817282","OBJECT_ID":"2022-136X","MEAN_ANOMALY":"279.8199","BSTAR":"0.00034855000000","OBJECT_NAME":"STARLINK-5144"},{"OBJECT_NAME":"STARLINK-5146","OBJECT_ID":"2022-136Y","MEAN_ANOMALY":"249.5657","BSTAR":"-0.00003036500000","FILE":"3817282","REF_FRAME":"TEME","MEAN_MOTION":"15.08845971","CLASSIFICATION_TYPE":"U","MEAN_MOTION_DDOT":"0.0000000000000","SEMIMAJOR_AXIS":"6917.862","APOAPSIS":"540.432","PERIOD":"95.437","MEAN_MOTION_DOT":"-0.00000771","SITE":"AFETR","COUNTRY_CODE":"US","EPOCH":"2023-02-20T22:43:30.006912","ECCENTRICITY":"0.00010190","REV_AT_EPOCH":"1940","ELEMENT_SET_NO":"999","EPHEMERIS_TYPE":"0","NORAD_CAT_ID":"54073","MEAN_ELEMENT_THEORY":"SGP4","GP_ID":"226193313","OBJECT_TYPE":"PAYLOAD","CENTER_NAME":"EARTH","LAUNCH_DATE":"2022-10-20","TIME_SYSTEM":"UTC","TLE_LINE1":"1 54073U 22136Y   23051.94687508 -.00000771  00000-0 -30365-4 0  9999","PERIAPSIS":"539.022","INCLINATION":"53.2184","RCS_SIZE":"LARGE","RA_OF_ASC_NODE":"294.7017","TLE_LINE2":"2 54073  53.2184 294.7017 0001019 110.5444 249.5657 15.08845971 19404","ARG_OF_PERICENTER":"110.5444","DECAY_DATE":null},{"NORAD_CAT_ID":"54074","MEAN_ELEMENT_THEORY":"SGP4","OBJECT_TYPE":"PAYLOAD","GP_ID":"226160597","EPOCH":"2023-02-20T10:06:12.710880","ECCENTRICITY":"0.00018110","ELEMENT_SET_NO":"999","EPHEMERIS_TYPE":"0","REV_AT_EPOCH":"1878","TLE_LINE2":"2 54074  53.2177 301.3892 0001811  72.7810 287.3380 15.08845993 18786","RA_OF_ASC_NODE":"301.3892","DECAY_DATE":null,"ARG_OF_PERICENTER":"72.7810","TLE_LINE1":"1 54074U 22136Z   23051.42098045 -.00000194  00000-0  59249-5 0  9996","LAUNCH_DATE":"2022-10-20","CENTER_NAME":"EARTH","TIME_SYSTEM":"UTC","PERIAPSIS":"538.474","INCLINATION":"53.2177","RCS_SIZE":"LARGE","FILE":"3815761","REF_FRAME":"TEME","MEAN_MOTION":"15.08845993","OBJECT_NAME":"STARLINK-5192","BSTAR":"0.00000592490000","MEAN_ANOMALY":"287.3380","OBJECT_ID":"2022-136Z","SITE":"AFETR","COUNTRY_CODE":"US","PERIOD":"95.437","MEAN_MOTION_DOT":"-0.00000194","APOAPSIS":"540.980","MEAN_MOTION_DDOT":"0.0000000000000","CLASSIFICATION_TYPE":"U","SEMIMAJOR_AXIS":"6917.862"}];
